{"dragon": {"capsule": null, "mass_returned_kg": null, "mass_returned_lbs": null, "flight_time_sec": null, "manifest": null, "water_landing": null, "land_landing": null}, "name": "Starlink-14", "type": "Satellite", "reused": false, "launch": "5ef6a2e70059c33cee4a8293", "customers": ["SpaceX"], "norad_ids": [46739, 46740, 46741, 46742, 46743, 46744, 46745, 46746, 46747, 46748, 46749, 46750, 46751, 46752, 46753, 46754, 46755, 46756, 46757, 46758, 46759, 46760, 46761, 46762, 46763, 46764, 46765, 46766, 46767, 46768, 46769, 46770, 46771, 46772, 46773, 46774, 46775, 46776, 46777, 46778, 46779, 46780, 46781, 46782, 46783, 46784, 46785, 46786, 46787, 46788, 46789, 46790, 46791, 46792, 46793, 46794, 46795, 46796, 46797, 46798], "nationalities": ["United States"], "manufacturers": ["SpaceX"], "mass_kg": 15600, "mass_lbs": 34392, "orbit": "VLEO", "reference_system": "geocentric", "regime": "very-low-earth", "longitude": null, "semi_major_axis_km": 6529.676, "eccentricity": 0.0007949, "periapsis_km": 146.351, "apoapsis_km": 156.732, "inclination_deg": 53.0227, "period_min": 87.518, "lifespan_years": null, "epoch": "2021-07-14T06:47:40.000Z", "mean_motion": 16.45376551, "raan": 331.8822, "arg_of_pericenter": 310.4108, "mean_anomaly": 50.2494, "id": "5ef6a4ea0059c33cee4a82a2"}